{"fetched_at":"2026-07-19T07:05:01.536Z","source":"https://celestrak.org/NORAD/elements/gp.php?NAME=BRO&FORMAT=JSON","constellation":"unseenlabs","records":[{"OBJECT_NAME":"BRO-1","OBJECT_ID":"2019-054A","EPOCH":"2026-07-18T16:06:46.826784","CLASSIFICATION_TYPE":"U","MEAN_MOTION":16.4225496,"ECCENTRICITY":0.000898,"INCLINATION":44.9686,"RA_OF_ASC_NODE":96.8667,"ARG_OF_PERICENTER":246.6096,"MEAN_ANOMALY":113.3886,"EPHEMERIS_TYPE":0,"NORAD_CAT_ID":44495,"ELEMENT_SET_NO":999,"REV_AT_EPOCH":38479,"BSTAR":0.00046223,"MEAN_MOTION_DOT":0.08990616,"MEAN_MOTION_DDOT":0.000010538},{"OBJECT_NAME":"BRO-5","OBJECT_ID":"2022-002CF","EPOCH":"2026-07-18T20:32:39.802272","CLASSIFICATION_TYPE":"U","MEAN_MOTION":15.490144,"ECCENTRICITY":0.0005766,"INCLINATION":97.2976,"RA_OF_ASC_NODE":273.8418,"ARG_OF_PERICENTER":190.0176,"MEAN_ANOMALY":170.0961,"EPHEMERIS_TYPE":0,"NORAD_CAT_ID":51061,"ELEMENT_SET_NO":999,"REV_AT_EPOCH":25115,"BSTAR":0.00032331,"MEAN_MOTION_DOT":0.00017435,"MEAN_MOTION_DDOT":0},{"OBJECT_NAME":"BRO-6","OBJECT_ID":"2022-047AE","EPOCH":"2026-07-18T19:14:27.659328","CLASSIFICATION_TYPE":"U","MEAN_MOTION":15.52755921,"ECCENTRICITY":0.0002815,"INCLINATION":97.3383,"RA_OF_ASC_NODE":291.5142,"ARG_OF_PERICENTER":288.6018,"MEAN_ANOMALY":71.4929,"EPHEMERIS_TYPE":0,"NORAD_CAT_ID":52422,"ELEMENT_SET_NO":999,"REV_AT_EPOCH":23605,"BSTAR":0.00041437,"MEAN_MOTION_DOT":0.00025561,"MEAN_MOTION_DDOT":0},{"OBJECT_NAME":"BRO-8","OBJECT_ID":"2023-001C","EPOCH":"2026-07-18T19:26:58.508160","CLASSIFICATION_TYPE":"U","MEAN_MOTION":15.50896271,"ECCENTRICITY":0.0004477,"INCLINATION":97.3177,"RA_OF_ASC_NODE":265.4899,"ARG_OF_PERICENTER":26.8409,"MEAN_ANOMALY":333.3074,"EPHEMERIS_TYPE":0,"NORAD_CAT_ID":55011,"ELEMENT_SET_NO":999,"REV_AT_EPOCH":19710,"BSTAR":0.00033586,"MEAN_MOTION_DOT":0.00019358,"MEAN_MOTION_DDOT":0},{"OBJECT_NAME":"BRO-11","OBJECT_ID":"2023-174J","EPOCH":"2026-07-18T19:44:17.944224","CLASSIFICATION_TYPE":"U","MEAN_MOTION":15.27609057,"ECCENTRICITY":0.0012023,"INCLINATION":97.3892,"RA_OF_ASC_NODE":276.3796,"ARG_OF_PERICENTER":96.67,"MEAN_ANOMALY":263.5908,"EPHEMERIS_TYPE":0,"NORAD_CAT_ID":58264,"ELEMENT_SET_NO":999,"REV_AT_EPOCH":14958,"BSTAR":0.00008258,"MEAN_MOTION_DOT":0.00002159,"MEAN_MOTION_DDOT":0},{"OBJECT_NAME":"BRO-13","OBJECT_ID":"2024-043K","EPOCH":"2026-07-18T20:24:06.793632","CLASSIFICATION_TYPE":"U","MEAN_MOTION":14.96659078,"ECCENTRICITY":0.0007388,"INCLINATION":97.8534,"RA_OF_ASC_NODE":330.9761,"ARG_OF_PERICENTER":247.7576,"MEAN_ANOMALY":112.2861,"EPHEMERIS_TYPE":0,"NORAD_CAT_ID":59107,"ELEMENT_SET_NO":999,"REV_AT_EPOCH":12935,"BSTAR":0.00010535,"MEAN_MOTION_DOT":0.00001142,"MEAN_MOTION_DDOT":0},{"OBJECT_NAME":"BRO-12","OBJECT_ID":"2024-043L","EPOCH":"2026-07-18T20:11:05.588160","CLASSIFICATION_TYPE":"U","MEAN_MOTION":14.96899053,"ECCENTRICITY":0.0007001,"INCLINATION":97.8516,"RA_OF_ASC_NODE":331.1367,"ARG_OF_PERICENTER":240.6931,"MEAN_ANOMALY":119.3591,"EPHEMERIS_TYPE":0,"NORAD_CAT_ID":59108,"ELEMENT_SET_NO":999,"REV_AT_EPOCH":12937,"BSTAR":0.000084453,"MEAN_MOTION_DOT":0.0000091,"MEAN_MOTION_DDOT":0},{"OBJECT_NAME":"BRO-14","OBJECT_ID":"2024-149CM","EPOCH":"2026-07-18T18:16:11.976672","CLASSIFICATION_TYPE":"U","MEAN_MOTION":14.96242761,"ECCENTRICITY":0.000646,"INCLINATION":97.6864,"RA_OF_ASC_NODE":274.9711,"ARG_OF_PERICENTER":7.5653,"MEAN_ANOMALY":352.5665,"EPHEMERIS_TYPE":0,"NORAD_CAT_ID":60551,"ELEMENT_SET_NO":999,"REV_AT_EPOCH":10471,"BSTAR":0.000091469,"MEAN_MOTION_DOT":0.00000975,"MEAN_MOTION_DDOT":0},{"OBJECT_NAME":"BRO-15","OBJECT_ID":"2024-149CP","EPOCH":"2026-07-18T17:51:19.451232","CLASSIFICATION_TYPE":"U","MEAN_MOTION":14.96224367,"ECCENTRICITY":0.0007351,"INCLINATION":97.6789,"RA_OF_ASC_NODE":274.5264,"ARG_OF_PERICENTER":352.9628,"MEAN_ANOMALY":7.1489,"EPHEMERIS_TYPE":0,"NORAD_CAT_ID":60553,"ELEMENT_SET_NO":999,"REV_AT_EPOCH":10472,"BSTAR":0.000049844,"MEAN_MOTION_DOT":0.00000505,"MEAN_MOTION_DDOT":0},{"OBJECT_NAME":"BRO-16","OBJECT_ID":"2025-009AX","EPOCH":"2026-07-18T18:59:06.836640","CLASSIFICATION_TYPE":"U","MEAN_MOTION":15.24142698,"ECCENTRICITY":0.0002396,"INCLINATION":97.4052,"RA_OF_ASC_NODE":279.8886,"ARG_OF_PERICENTER":146.4313,"MEAN_ANOMALY":213.7076,"EPHEMERIS_TYPE":0,"NORAD_CAT_ID":62654,"ELEMENT_SET_NO":999,"REV_AT_EPOCH":8361,"BSTAR":0.000080417,"MEAN_MOTION_DOT":0.00001885,"MEAN_MOTION_DDOT":0},{"OBJECT_NAME":"BRO-18","OBJECT_ID":"2025-135Y","EPOCH":"2026-07-18T19:22:15.977568","CLASSIFICATION_TYPE":"U","MEAN_MOTION":15.2218852,"ECCENTRICITY":0.0002604,"INCLINATION":97.4656,"RA_OF_ASC_NODE":314.5987,"ARG_OF_PERICENTER":111.0946,"MEAN_ANOMALY":249.0569,"EPHEMERIS_TYPE":0,"NORAD_CAT_ID":64550,"ELEMENT_SET_NO":999,"REV_AT_EPOCH":5968,"BSTAR":0.000092696,"MEAN_MOTION_DOT":0.00002058,"MEAN_MOTION_DDOT":0},{"OBJECT_NAME":"BRO-17","OBJECT_ID":"2025-276G","EPOCH":"2026-07-18T18:07:39.383616","CLASSIFICATION_TYPE":"U","MEAN_MOTION":15.18170508,"ECCENTRICITY":0.0005293,"INCLINATION":97.4179,"RA_OF_ASC_NODE":272.2539,"ARG_OF_PERICENTER":243.5652,"MEAN_ANOMALY":116.5039,"EPHEMERIS_TYPE":0,"NORAD_CAT_ID":66672,"ELEMENT_SET_NO":999,"REV_AT_EPOCH":3518,"BSTAR":0.00008403,"MEAN_MOTION_DOT":0.0000165,"MEAN_MOTION_DDOT":0},{"OBJECT_NAME":"BRO-20","OBJECT_ID":"2025-276J","EPOCH":"2026-07-18T17:32:33.415584","CLASSIFICATION_TYPE":"U","MEAN_MOTION":15.18337161,"ECCENTRICITY":0.0004833,"INCLINATION":97.4159,"RA_OF_ASC_NODE":272.218,"ARG_OF_PERICENTER":246.7214,"MEAN_ANOMALY":113.3511,"EPHEMERIS_TYPE":0,"NORAD_CAT_ID":66674,"ELEMENT_SET_NO":999,"REV_AT_EPOCH":3518,"BSTAR":0.000076988,"MEAN_MOTION_DOT":0.00001514,"MEAN_MOTION_DDOT":0},{"OBJECT_NAME":"BRO-19","OBJECT_ID":"2026-067G","EPOCH":"2026-07-18T19:16:02.626752","CLASSIFICATION_TYPE":"U","MEAN_MOTION":15.19003531,"ECCENTRICITY":0.0002658,"INCLINATION":97.4492,"RA_OF_ASC_NODE":157.8114,"ARG_OF_PERICENTER":103.661,"MEAN_ANOMALY":256.492,"EPHEMERIS_TYPE":0,"NORAD_CAT_ID":68422,"ELEMENT_SET_NO":999,"REV_AT_EPOCH":1674,"BSTAR":0.000095412,"MEAN_MOTION_DOT":0.00001929,"MEAN_MOTION_DDOT":0},{"OBJECT_NAME":"BRO-21","OBJECT_ID":"2026-100AD","EPOCH":"2026-07-18T07:08:29.564160","CLASSIFICATION_TYPE":"U","MEAN_MOTION":15.2163981,"ECCENTRICITY":0.0006493,"INCLINATION":97.4003,"RA_OF_ASC_NODE":96.6815,"ARG_OF_PERICENTER":316.4019,"MEAN_ANOMALY":43.6703,"EPHEMERIS_TYPE":0,"NORAD_CAT_ID":69007,"ELEMENT_SET_NO":999,"REV_AT_EPOCH":1153,"BSTAR":0.00014575,"MEAN_MOTION_DOT":0.00003225,"MEAN_MOTION_DDOT":0},{"OBJECT_NAME":"BRO-22","OBJECT_ID":"2026-132C","EPOCH":"2026-07-18T17:02:50.083296","CLASSIFICATION_TYPE":"U","MEAN_MOTION":14.9981727,"ECCENTRICITY":0.0016962,"INCLINATION":97.6825,"RA_OF_ASC_NODE":262.9854,"ARG_OF_PERICENTER":168.0284,"MEAN_ANOMALY":192.1346,"EPHEMERIS_TYPE":0,"NORAD_CAT_ID":69504,"ELEMENT_SET_NO":999,"REV_AT_EPOCH":550,"BSTAR":0.00011503,"MEAN_MOTION_DOT":0.00001368,"MEAN_MOTION_DDOT":0}]}
