BRO-1                   
1 44495U 19054A   26199.67137531  .08990616  10538-4  46223-3 0  9995
2 44495  44.9686  96.8667 0008980 246.6096 113.3886 16.42254960384795
BRO-5                   
1 51061U 22002CF  26199.85601623  .00017435  00000+0  32331-3 0  9991
2 51061  97.2976 273.8418 0005766 190.0176 170.0961 15.49014400251152
BRO-6                   
1 52422U 22047AE  26199.80170902  .00025561  00000+0  41437-3 0  9994
2 52422  97.3383 291.5142 0002815 288.6018  71.4929 15.52755921236053
BRO-8                   
1 55011U 23001C   26199.81039940  .00019358  00000+0  33586-3 0  9992
2 55011  97.3177 265.4899 0004477  26.8409 333.3074 15.50896271197107
BRO-11                  
1 58264U 23174J   26199.82242991  .00002159  00000+0  82580-4 0  9999
2 58264  97.3892 276.3796 0012023  96.6700 263.5908 15.27609057149583
BRO-13                  
1 59107U 24043K   26199.85007863  .00001142  00000+0  10535-3 0  9993
2 59107  97.8534 330.9761 0007388 247.7576 112.2861 14.96659078129359
BRO-12                  
1 59108U 24043L   26199.84103690  .00000910  00000+0  84453-4 0  9991
2 59108  97.8516 331.1367 0007001 240.6931 119.3591 14.96899053129373
BRO-14                  
1 60551U 24149CM  26199.76124973  .00000975  00000+0  91469-4 0  9996
2 60551  97.6864 274.9711 0006460   7.5653 352.5665 14.96242761104719
BRO-15                  
1 60553U 24149CP  26199.74397513  .00000505  00000+0  49844-4 0  9997
2 60553  97.6789 274.5264 0007351 352.9628   7.1489 14.96224367104725
BRO-16                  
1 62654U 25009AX  26199.79105135  .00001885  00000+0  80417-4 0  9992
2 62654  97.4052 279.8886 0002396 146.4313 213.7076 15.24142698 83618
BRO-18                  
1 64550U 25135Y   26199.80712937  .00002058  00000+0  92696-4 0  9990
2 64550  97.4656 314.5987 0002604 111.0946 249.0569 15.22188520 59687
BRO-17                  
1 66672U 25276G   26199.75531694  .00001650  00000+0  84030-4 0  9996
2 66672  97.4179 272.2539 0005293 243.5652 116.5039 15.18170508 35180
BRO-20                  
1 66674U 25276J   26199.73094231  .00001514  00000+0  76988-4 0  9999
2 66674  97.4159 272.2180 0004833 246.7214 113.3511 15.18337161 35180
BRO-19                  
1 68422U 26067G   26199.80280818  .00001929  00000+0  95412-4 0  9990
2 68422  97.4492 157.8114 0002658 103.6610 256.4920 15.19003531 16748
BRO-21                  
1 69007U 26100AD  26199.29756440  .00003225  00000+0  14575-3 0  9991
2 69007  97.4003  96.6815 0006493 316.4019  43.6703 15.21639810 11537
BRO-22                  
1 69504U 26132C   26199.71030189  .00001368  00000+0  11503-3 0  9994
2 69504  97.6825 262.9854 0016962 168.0284 192.1346 14.99817270  5506
